      2.10          N: GNSS NAV DATA                        RINEX VERSION / TYPE
fic2rin                                 01/30/2022 00:17:37 PGM / RUN BY / DATE
                                                            END OF HEADER
 4 22  1 29 22  0  0.0-1.924750395119e-04 2.046363078989e-12 0.000000000000e+00
    1.200000000000e+02 1.175000000000e+01 4.597334354572e-09 1.171444161386e+00
    6.519258022308e-07 1.682658214122e-03 8.601695299149e-06 5.153651735306e+03
    5.976000000000e+05-3.166496753693e-08 5.780070713317e-01 5.960464477539e-08
    9.612642076441e-01 2.140937500000e+02-3.087833378049e+00-7.891400137062e-09
    6.607418082628e-10 1.000000000000e+00 2.194000000000e+03 0.000000000000e+00
    2.400000000000e+00 0.000000000000e+00-4.190951585770e-09 3.760000000000e+02
    5.904000000000e+05 4.000000000000e+00
 9 22  1 29 22  0  0.0-3.562234342098e-04 1.364242052659e-12 0.000000000000e+00
    3.200000000000e+01 4.187500000000e+00 4.678409160235e-09 1.989196411204e+00
    2.477318048477e-07 2.304595895112e-03 8.847564458847e-06 5.153624279022e+03
    5.976000000000e+05 3.166496753693e-08 5.251953951249e-01 3.911554813385e-08
    9.542898759009e-01 2.046875000000e+02 1.868858076389e+00-7.902829184557e-09
    7.039578941005e-10 1.000000000000e+00 2.194000000000e+03 0.000000000000e+00
    2.400000000000e+00 0.000000000000e+00 1.396983861923e-09 3.200000000000e+01
    5.904000000000e+05 4.000000000000e+00
32 22  1 29 22  0  0.0-5.868636071682e-05-6.366462912410e-12 0.000000000000e+00
    2.400000000000e+01 1.437500000000e+00 4.503044712744e-09 2.256343613563e+00
    2.030283212662e-07 5.492654163390e-03 9.259209036827e-06 5.153767995834e+03
    5.976000000000e+05-1.210719347000e-07 5.363213976761e-01-1.639127731323e-07
    9.581437829002e-01 1.977500000000e+02-2.366963280333e+00-7.830683322249e-09
    7.561029232931e-10 1.000000000000e+00 2.194000000000e+03 0.000000000000e+00
    2.400000000000e+00 0.000000000000e+00 4.656612873077e-10 2.400000000000e+01
    5.904000000000e+05 4.000000000000e+00
20 22  1 29 22  0  0.0 5.169450305402e-04-2.273736754432e-13 0.000000000000e+00
    1.800000000000e+01-1.609687500000e+02 4.680552106640e-09 4.022039808388e-01
   -8.288770914078e-06 5.246070912108e-03 8.739531040192e-06 5.153741994858e+03
    5.976000000000e+05 1.322478055954e-07-6.566382422242e-01 3.911554813385e-08
    9.417095425995e-01 2.025312500000e+02 3.119204022179e+00-8.206770416358e-09
   -1.678641350722e-11 1.000000000000e+00 2.194000000000e+03 0.000000000000e+00
    2.400000000000e+00 0.000000000000e+00-8.381903171539e-09 1.800000000000e+01
    5.904000000000e+05 4.000000000000e+00
12 22  1 29 22  0  0.0-1.632128842175e-04-5.684341886081e-12 0.000000000000e+00
    7.000000000000e+01 8.959375000000e+01 4.134457931054e-09-1.957597392395e+00
    4.623085260391e-06 8.623277070001e-03 1.170113682747e-05 5.153615091324e+03
    5.976000000000e+05 1.136213541031e-07 2.709975884070e+00 1.117587089539e-08
    9.707096069800e-01 1.585937500000e+02 1.239223967727e+00-7.522099039904e-09
   -4.039453973758e-10 1.000000000000e+00 2.194000000000e+03 0.000000000000e+00
    2.400000000000e+00 0.000000000000e+00-1.257285475731e-08 7.000000000000e+01
    5.904000000000e+05 4.000000000000e+00
19 22  1 29 22  0  0.0 1.120804809034e-04 5.002220859751e-12 0.000000000000e+00
    4.100000000000e+01 1.383750000000e+02 4.076598378114e-09-2.323379390009e+00
    7.320195436478e-06 8.952521602623e-03 2.805143594742e-06 5.153687229156e+03
    5.976000000000e+05 2.235174179077e-08-2.491469337093e+00 1.043081283569e-07
    9.789451730644e-01 3.360937500000e+02 2.000277345638e+00-8.009619347081e-09
    2.303667385565e-10 1.000000000000e+00 2.194000000000e+03 0.000000000000e+00
    2.400000000000e+00 0.000000000000e+00-1.583248376846e-08 4.100000000000e+01
    5.904000000000e+05 4.000000000000e+00
11 22  1 29 22  0  0.0-9.288918226957e-05-3.888089850079e-11 0.000000000000e+00
    8.100000000000e+01-8.965625000000e+01 4.725553981148e-09 1.520725905984e+00
   -4.597008228302e-06 2.923433203250e-04 3.725290298462e-09 5.153765457153e+03
    5.976000000000e+05-7.450580596924e-09-1.494121710818e+00 6.705522537231e-08
    9.615944701780e-01 3.813750000000e+02 2.844681771408e+00-8.533212585413e-09
   -2.521533603424e-10 1.000000000000e+00 2.194000000000e+03 0.000000000000e+00
    2.400000000000e+00 6.300000000000e+01-8.847564458847e-09 8.490000000000e+02
    5.904000000000e+05 4.000000000000e+00
29 22  1 29 22  0  0.0-4.736464470625e-04-4.888534022029e-12 0.000000000000e+00
    9.700000000000e+01 1.457500000000e+02 4.036596711884e-09 1.711348461950e+00
    7.495284080505e-06 1.792815863155e-03 4.146248102188e-06 5.153764574051e+03
    5.976000000000e+05-4.097819328308e-08-2.523384852376e+00-8.754432201385e-08
    9.822255679003e-01 3.057812500000e+02 2.267654935650e+00-8.057121325729e-09
    1.714357124141e-10 1.000000000000e+00 2.194000000000e+03 0.000000000000e+00
    2.400000000000e+00 0.000000000000e+00-1.024454832077e-08 9.700000000000e+01
    5.904000000000e+05 4.000000000000e+00
30 22  1 29 22  0  0.0-5.100611597300e-04-2.501110429876e-12 0.000000000000e+00
    6.200000000000e+01-4.531250000000e+00 5.493085951936e-09-1.274619792916e+00
   -3.501772880554e-07 5.448094103485e-03 5.679205060005e-06 5.153573673248e+03
    5.976000000000e+05 1.005828380585e-07 1.610668063956e+00-3.352761268616e-08
    9.356789963631e-01 2.528750000000e+02-2.750224486483e+00-8.338918778010e-09
   -2.064371703653e-10 1.000000000000e+00 2.194000000000e+03 0.000000000000e+00
    2.400000000000e+00 0.000000000000e+00 3.725290298462e-09 6.200000000000e+01
    5.904000000000e+05 4.000000000000e+00
27 22  1 29 22  0  0.0 9.488547220826e-05 1.887201506179e-11 0.000000000000e+00
    5.300000000000e+01 1.337500000000e+02 4.224818837805e-09 1.589536654102e+00
    7.063150405884e-06 1.012680039275e-02 5.280598998070e-06 5.153658231735e+03
    5.976000000000e+05-1.732259988785e-07-2.598698590273e+00 2.123415470123e-07
    9.738621910521e-01 2.859375000000e+02 6.333270741919e-01-8.156768333570e-09
    1.167905790821e-10 1.000000000000e+00 2.194000000000e+03 0.000000000000e+00
    2.400000000000e+00 0.000000000000e+00 1.396983861923e-09 5.300000000000e+01
    5.904000000000e+05 4.000000000000e+00
22 22  1 29 22  0  0.0 2.058637328446e-04 5.570655048359e-12 0.000000000000e+00
    3.300000000000e+01 4.062500000000e+00 4.591262673091e-09 1.415733066873e+00
    1.974403858185e-07 1.279808173422e-02 8.746981620789e-06 5.153648977280e+03
    5.976000000000e+05-3.352761268616e-07 6.262999062364e-01-1.937150955200e-07
    9.613840308752e-01 2.110937500000e+02-1.876042954228e+00-8.033548915273e-09
    7.053865250373e-10 1.000000000000e+00 2.194000000000e+03 0.000000000000e+00
    2.400000000000e+00 0.000000000000e+00-9.778887033463e-09 3.300000000000e+01
    5.904000000000e+05 4.000000000000e+00
24 22  1 29 22  0  0.0 2.764901146293e-04-9.094947017729e-13 0.000000000000e+00
    8.900000000000e+01-2.343750000000e+00 5.749525205089e-09-3.347462081175e-01
    1.862645149231e-08 1.232406916097e-02 5.410984158516e-06 5.153682985306e+03
    5.976000000000e+05 5.960464477539e-08 1.514766418067e+00 1.471489667892e-07
    9.339990763305e-01 2.636250000000e+02 8.047658953069e-01-8.662503685192e-09
   -1.350056235261e-10 1.000000000000e+00 2.194000000000e+03 0.000000000000e+00
    3.400000000000e+00 0.000000000000e+00 2.328306436539e-09 8.900000000000e+01
    5.904000000000e+05 4.000000000000e+00
21 22  1 29 22  0  0.0 1.571062020957e-04 6.821210263297e-13 0.000000000000e+00
    7.300000000000e+01-4.000000000000e+01 4.602691720585e-09 1.725665021538e+00
   -2.404674887657e-06 2.455256017856e-02-1.437962055206e-06 5.153594846725e+03
    5.976000000000e+05 4.079192876816e-07-1.628798945442e+00 4.656612873077e-08
    9.590737657748e-01 3.951250000000e+02-1.016691386809e+00-8.246772082588e-09
   -3.732298322349e-10 1.000000000000e+00 2.194000000000e+03 0.000000000000e+00
    2.400000000000e+00 0.000000000000e+00-1.024454832077e-08 7.300000000000e+01
    5.904000000000e+05 4.000000000000e+00
26 22  1 29 22  0  0.0 1.787473447621e-04 3.296918293927e-12 0.000000000000e+00
    6.800000000000e+01 4.421875000000e+01 4.882346226460e-09-2.849743766398e+00
    2.248212695122e-06 6.839931476861e-03 1.155957579613e-05 5.153695577621e+03
    5.976000000000e+05-9.126961231232e-08 2.586817384059e+00-6.891787052155e-08
    9.388831746300e-01 1.469062500000e+02 3.567207664175e-01-7.930330330090e-09
   -5.000208278745e-10 1.000000000000e+00 2.194000000000e+03 0.000000000000e+00
    2.400000000000e+00 0.000000000000e+00 6.984919309616e-09 6.800000000000e+01
    5.904000000000e+05 4.000000000000e+00
25 22  1 29 22  0  0.0 2.780864015222e-04 5.456968210638e-12 0.000000000000e+00
    1.030000000000e+02 6.081250000000e+01 4.375896559370e-09-2.199882328329e+00
    3.075227141380e-06 1.043245778419e-02 1.168809831142e-05 5.153722826004e+03
    5.976000000000e+05 9.685754776001e-08 2.633483375062e+00-5.401670932770e-08
    9.580759898135e-01 1.511562500000e+02 9.738623519731e-01-7.640318249923e-09
   -4.196603376804e-10 1.000000000000e+00 2.194000000000e+03 0.000000000000e+00
    2.400000000000e+00 0.000000000000e+00 5.587935447693e-09 1.030000000000e+02
    5.904000000000e+05 4.000000000000e+00
17 22  1 29 22  0  0.0 5.681049078703e-04 5.115907697473e-12 0.000000000000e+00
    6.200000000000e+01 1.335312500000e+02 4.104456681381e-09 1.552586861738e+00
    6.571412086487e-06 1.366729266010e-02 3.609806299210e-06 5.153750997543e+03
    5.976000000000e+05 1.024454832077e-07-2.536361614533e+00-3.967434167862e-07
    9.802327048210e-01 3.175625000000e+02-1.502240985155e+00-8.038549123551e-09
    2.021512775550e-10 1.000000000000e+00 2.194000000000e+03 0.000000000000e+00
    2.400000000000e+00 0.000000000000e+00-1.117587089539e-08 6.200000000000e+01
    5.904000000000e+05 4.000000000000e+00
